[{"OBJECT_NAME":"STARLINK-32707","OBJECT_ID":"2024-254S","EPOCH":"2026-03-09T05:41:23.610048","MEAN_MOTION":15.27592539,"ECCENTRICITY":0.00023246,"INCLINATION":43.0003,"RA_OF_ASC_NODE":18.9358,"ARG_OF_PERICENTER":257.6288,"MEAN_ANOMALY":102.4304,"EPHEMERIS_TYPE":0,"CLASSIFICATION_TYPE":"U","NORAD_CAT_ID":62478,"ELEMENT_SET_NO":999,"REV_AT_EPOCH":6758,"BSTAR":0.00091105331,"MEAN_MOTION_DOT":0.00024903,"MEAN_MOTION_DDOT":0},{"OBJECT_NAME":"TRANSPORTER-12 OBJECT BT","OBJECT_ID":"2025-009BT","EPOCH":"2026-03-09T17:08:24.281088","MEAN_MOTION":15.27872239,"ECCENTRICITY":0.00036816,"INCLINATION":97.4094,"RA_OF_ASC_NODE":151.5992,"ARG_OF_PERICENTER":313.5044,"MEAN_ANOMALY":46.5889,"EPHEMERIS_TYPE":0,"CLASSIFICATION_TYPE":"U","NORAD_CAT_ID":62674,"ELEMENT_SET_NO":999,"REV_AT_EPOCH":12136,"BSTAR":0.000510288,"MEAN_MOTION_DOT":0.00013824,"MEAN_MOTION_DDOT":0}]
